NAVSTAR 86 (USA 585)    
1 68791U 26087A   26135.51086649  .00000055  00000+0  00000+0 0  9998
2 68791  54.9647 209.0805 0004396 270.1508  92.8793  2.00570335   189
